OBJECT_NAME,OBJECT_ID,EPOCH,MEAN_MOTION,ECCENTRICITY,INCLINATION,RA_OF_ASC_NODE,ARG_OF_PERICENTER,MEAN_ANOMALY,EPHEMERIS_TYPE,CLASSIFICATION_TYPE,NORAD_CAT_ID,ELEMENT_SET_NO,REV_AT_EPOCH,BSTAR,MEAN_MOTION_DOT,MEAN_MOTION_DDOT
LEMUR-1,2014-033AL,2026-07-07T08:52:22.060992,14.85321522,.00484297,97.7901,337.7295,13.6614,346.5900,0,U,40044,999,64846,.17399467E-3,.1471E-4,0
LEMUR-2-GREENBERG,2017-042N,2026-07-07T17:33:50.435136,15.31988787,.0007164,97.3832,9.2717,291.5288,68.5190,0,U,42837,999,49153,.35669E-3,.10951E-3,0
LEMUR-2-ANDIS,2017-042P,2026-07-06T17:39:02.432448,15.35678970,.00071071,97.3685,8.5318,293.7973,66.2525,0,U,42838,999,49145,.51664211E-3,.17878E-3,0
LEMUR-2-MONSON,2017-042Q,2026-07-07T10:59:43.408320,15.28615242,.00051467,97.4095,8.9398,281.0533,79.0128,0,U,42839,999,49126,.37280373E-3,.10309E-3,0
LEMUR-2-FURIAUS,2017-042R,2026-07-07T17:45:16.770816,15.30959490,.0006573,97.3781,7.1882,358.8264,1.2961,0,U,42840,999,49135,.38105E-3,.11334E-3,0
LEMUR-2-PETERG,2017-042S,2026-07-07T10:45:59.616288,15.34821414,.00028628,97.4001,13.5239,258.0828,102.0094,0,U,42841,999,49154,.4771216E-3,.16045E-3,0
LEMUR-2-DEMBITZ,2017-042T,2026-07-06T10:51:09.921888,15.30918269,.0005291,97.3834,8.9463,313.9812,46.0993,0,U,42842,999,49129,.57818256E-3,.17223E-3,0
LEMUR-2-ZACHARY,2017-042W,2026-07-07T18:26:52.963584,15.52194188,.0002324,97.3592,20.8688,287.1749,72.9249,0,U,42845,999,49239,.59972E-3,.36347E-3,0
LEMUR-2-AMANDA-SVANTE,2021-034B,2026-07-07T18:18:05.116608,15.35628121,.0004103,97.5748,267.6079,160.6097,199.5303,0,U,48269,999,28421,.6741E-3,.23316E-3,0
LEMUR-2-SPECIAL-K,2021-034F,2026-07-07T18:21:55.147104,15.72000030,.0005799,97.5628,277.2182,219.6386,140.4453,0,U,48273,999,28491,.1322E-2,.17574E-2,0
LEMUR-2-EMBRIONOVIS,2023-084AQ,2026-07-07T08:57:42.516000,15.38085565,.00077512,97.6318,333.3577,236.9428,123.1072,0,U,56970,999,17078,.26323363E-3,.979E-4,0
LEMUR-2-DEVERILL-M-T,2023-100F,2026-07-07T16:45:47.686176,15.40821036,.0004797,99.4460,233.3957,329.3522,30.7437,0,U,57391,999,16440,.3957E-3,.16121E-3,0
LEMUR-2-BASS,2023-174D,2026-07-07T18:17:40.155648,15.43815088,.0007968,97.3840,273.7712,100.4871,259.7275,0,U,58259,999,14853,.26567E-3,.11961E-3,0
LEMUR-2-JK0903EM1407,2023-174CJ,2026-07-07T18:33:20.138400,15.52784710,.000424,97.3916,279.8389,57.6840,302.4823,0,U,58336,999,14892,.30614E-3,.18867E-3,0
LEMUR-2-MJR092620,2023-174CN,2026-07-07T18:02:01.069728,15.45666061,.000604,97.3969,279.1695,54.9208,305.2607,0,U,58340,999,14882,.27774E-3,.13318E-3,0
LEMUR-2-NIMBUS2000,2024-022A,2026-07-07T00:31:18.539904,15.40867104,.00095303,97.4093,38.2803,55.1826,305.0316,0,U,58899,999,13532,.40709295E-3,.16668E-3,0
LEMUR-2-VALHALLA,2024-022B,2026-07-07T00:33:46.291680,15.40309483,.0010016,97.4094,38.2595,51.0671,309.1466,0,U,58900,999,13532,.29263256E-3,.11733E-3,0
LEMUR-2-CAEL,2024-022E,2026-07-07T01:56:52.108224,15.41661151,.00079789,97.4077,39.2893,37.3970,322.7831,0,U,58903,999,13540,.31039849E-3,.13015E-3,0
LEMUR-2-JOHNNYTRUONG,2024-043BA,2026-07-07T09:41:37.749696,15.62091018,.00043587,97.5392,341.3839,116.1045,244.0662,0,U,59146,999,13119,.38548576E-3,.33713E-3,0
LEMUR-2-TOMATOKECHUP,2024-149D,2026-07-07T18:07:55.111008,15.36476705,.0002964,97.3789,270.8599,136.0140,224.1341,0,U,60471,999,10532,.20696E-3,.7285E-4,0
LEMUR-2-STELLA,2024-149BT,2026-07-07T17:30:20.178144,15.12265521,.0001085,97.6725,271.2795,110.8290,249.3056,0,U,60533,999,10360,.40628E-3,.6963E-4,0
LEMUR-2-MARHISYAM,2024-149BW,2026-07-07T17:13:03.569088,15.11678961,.0002763,97.6872,271.7371,80.2006,279.9535,0,U,60536,999,10358,.45283E-3,.7643E-4,0
LEMUR-2-AHMED-ASRAR,2024-149DN,2026-07-07T19:08:29.073408,15.13196677,.0000625,97.6994,273.9913,254.8296,105.2865,0,U,60576,999,10368,.4517E-3,.7953E-4,0
LEMUR-2-LLOYD,2024-149DP,2026-07-07T11:02:38.252544,15.09650711,.00049101,97.6734,269.6046,90.2019,269.9772,0,U,60577,999,10345,.40278112E-3,.642E-4,0
LEMUR-2-SQUIRRELCOMM,2024-149DQ,2026-07-07T04:07:02.551584,15.07390844,.00048314,97.6704,269.0219,356.7461,3.3734,0,U,60578,999,10341,.32133495E-3,.48E-4,0
LEMUR-2-SIERRINI,2024-149DR,2026-07-07T17:52:44.011776,15.11407209,.0006586,97.6835,271.4333,109.6866,250.5075,0,U,60579,999,10356,.4029E-3,.6743E-4,0
LEMUR-2-WILSON,2025-009CP,2026-07-07T04:07:02.604288,14.95258050,.00025989,97.7021,266.2859,5.7645,354.3605,0,U,62694,999,8034,.23207035E-3,.2497E-4,0
LEMUR-2-STAR-FOX,2025-009CR,2026-07-07T17:39:58.580352,15.02784369,.0003327,97.6925,270.1988,67.8179,292.3399,0,U,62696,999,8064,.30359E-3,.4001E-4,0
LEMUR-2-ARIANNA,2025-009CU,2026-07-07T17:37:46.255296,15.02783669,.0003665,97.6863,269.9554,73.0390,287.1237,0,U,62699,999,8064,.31804E-3,.4195E-4,0
LEMUR-2-ALISIA,2025-009DB,2026-07-07T18:36:09.136800,15.03098125,.0003474,97.6954,270.8056,153.3785,206.7619,0,U,62706,999,10325,.43504E-3,.581E-4,0
